STARLINK-3133           
1 49416U 21104J   22141.25001157 -.00065439  00000+0 -41275-2 0  9992
2 49416  53.2170 342.0640 0002375  26.9691 332.7094 15.08870489  1305
STARLINK-3154           
1 49417U 21104K   22140.97868011  .00001195  00000+0  93147-4 0  9995
2 49417  53.2205 333.2940 0002164  38.1484 321.9661 15.08850800 29115
STARLINK-3111           
1 49418U 21104L   22141.25001157 -.00041761  00000+0 -26197-2 0  9992
2 49418  53.2185 342.0688 0002266  26.1911 353.5285 15.08857623  1309
STARLINK-3120           
1 49419U 21104M   22141.25001157 -.00013980  00000+0 -86195-3 0  9990
2 49419  53.2187 342.0694 0002086  32.9436  46.7099 15.08840004  1305
STARLINK-3110           
1 49420U 21104N   22141.25001157 -.00033130  00000+0 -20725-2 0  9997
2 49420  53.2177 342.0594 0002337  31.4219   8.2627 15.08848558  1309
STARLINK-3112           
1 49421U 21104P   22141.25001157 -.00028300  00000+0 -17663-2 0  9998
2 49421  53.2182 342.0666 0001933  39.8237  79.8925 15.08854200  1305
STARLINK-3161           
1 49422U 21104Q   22141.25001157 -.00029898  00000+0 -18678-2 0  9999
2 49422  53.2190 342.0653 0002383  26.7876  32.8872 15.08846842  1308
STARLINK-3149           
1 49423U 21104R   22141.25001157 -.00044130  00000+0 -27695-2 0  9995
2 49423  53.2193 342.0637 0002230  31.4130 128.1839 15.08867596  1302
STARLINK-3135           
1 49424U 21104S   22141.25001157 -.00023785  00000+0 -14809-2 0  9992
2 49424  53.2182 342.0656 0002359  26.8337  72.8531 15.08847157  1306
STARLINK-3139           
1 49425U 21104T   22141.25001157 -.00050870  00000+0 -31992-2 0  9990
2 49425  53.2178 342.0667 0001764  37.3509 142.3189 15.08858520  1309
STARLINK-3114           
1 49426U 21104U   22141.25001157 -.00007896  00000+0 -47859-3 0  9991
2 49426  53.2187 342.0640 0002026  37.9941 101.6901 15.08832699  1308
STARLINK-3131           
1 49427U 21104V   22141.25001157 -.00057365  00000+0 -36128-2 0  9994
2 49427  53.2186 342.0657 0001930  35.0659 164.6030 15.08862616  1308
STARLINK-3121           
1 49428U 21104W   22141.25001157 -.00046587  00000+0 -29255-2 0  9992
2 49428  53.2161 342.0792 0002017  27.8207 226.6788 15.08870569  1302
STARLINK-3138           
1 49430U 21104Y   22141.25001157 -.00018422  00000+0 -11428-2 0  9995
2 49430  53.2180 342.0702 0002043  38.7819 180.9088 15.08824218  1301
STARLINK-3153           
1 49431U 21104Z   22141.25001157  .00239289  00000+0  14588-1 0  9999
2 49431  53.2175 342.0608 0002246  31.4204  42.9759 15.08751531  1303
STARLINK-3158           
1 49432U 21104AA  22141.25001157 -.00043860  00000+0 -27531-2 0  9993
2 49432  53.2153 332.0802 0002011  37.9132  11.5880 15.08858181  1302
STARLINK-3079           
1 49433U 21104AB  22141.25001157  .00015879  00000+0  10139-2 0  9997
2 49433  53.2167 322.0676 0001872  43.6955   5.9840 15.08826841  1308
STARLINK-3134           
1 49434U 21104AC  22141.25001157 -.00011529  00000+0 -70754-3 0  9998
2 49434  53.2168 342.0765 0002137  34.4086 205.2849 15.08833268  1304
STARLINK-3117           
1 49435U 21104AD  22141.25001157  .00014022  00000+0  89779-3 0  9995
2 49435  53.2162 322.0788 0001727  45.2799 339.2132 15.08820341  1308
STARLINK-3049           
1 49436U 21104AE  22141.25001157  .00008563  00000+0  55531-3 0  9998
2 49436  53.2162 322.0633 0001826  51.6958 337.9062 15.08848223  1302
STARLINK-3130           
1 49437U 21104AF  22141.25001157 -.00016169  00000+0 -10003-2 0  9996
2 49437  53.2178 322.0765 0002079  38.5224  31.1824 15.08830620  1308
STARLINK-3044           
1 49438U 21104AG  22141.25001157 -.00023040  00000+0 -14344-2 0  9995
2 49438  53.2162 322.0771 0002076  35.4764  54.2232 15.08831900  1302
STARLINK-3108           
1 49439U 21104AH  22141.25001157 -.00032379  00000+0 -20252-2 0  9996
2 49439  53.2184 322.0662 0002075  35.2073 154.4940 15.08843695  1309
STARLINK-3105           
1 49440U 21104AJ  22141.25001157 -.00022086  00000+0 -13738-2 0  9993
2 49440  53.2168 322.0810 0002251  31.3050  78.3848 15.08838327  1303
STARLINK-3128           
1 49441U 21104AK  22141.25001157  .00011861  00000+0  76213-3 0  9999
2 49441  53.2183 322.0631 0001956  35.3177 174.3658 15.08836026  1307
STARLINK-3098           
1 49442U 21104AL  22141.25001157 -.00026489  00000+0 -16523-2 0  9991
2 49442  53.2158 322.0774 0001965  34.2408  95.4456 15.08840500  1304
STARLINK-3136           
1 49443U 21104AM  22141.25001157 -.00041252  00000+0 -25871-2 0  9993
2 49443  53.2191 322.0662 0002007  34.3091 195.3798 15.08862108  1302
STARLINK-3126           
1 49444U 21104AN  22141.25001157  .00016801  00000+0  10718-2 0  9998
2 49444  53.2171 322.0721 0001989  39.7835 109.9098 15.08818991  1305
STARLINK-3122           
1 49445U 21104AP  22141.25001157  .00002222  00000+0  15769-3 0  9993
2 49445  53.2176 332.0778 0002198  29.0346  45.6422 15.08835850  1306
STARLINK-3099           
1 49446U 21104AQ  22141.25001157 -.00010839  00000+0 -66408-3 0  9995
2 49446  53.2171 322.0708 0002300  32.2069 137.4767 15.08829931  1302
STARLINK-3115           
1 49447U 21104AR  22141.25001157 -.00001366  00000+0 -67732-4 0  9993
2 49447  53.2171 332.0843 0002406  31.3881  83.2702 15.08839972  1306
STARLINK-3097           
1 49448U 21104AS  22141.25001157  .00001842  00000+0  13384-3 0  9994
2 49448  53.2158 332.0791 0002032  36.8886  17.8063 15.08831460  1301
STARLINK-3137           
1 49449U 21104AT  22141.25001157 -.00016653  00000+0 -10307-2 0  9994
2 49449  53.2198 332.0647 0002188  34.2045 100.4945 15.08836478  1309
STARLINK-3127           
1 49450U 21104AU  22141.25001157 -.00046921  00000+0 -29482-2 0  9991
2 49450  53.2154 332.0836 0001966  33.7712  60.9581 15.08852519  1301
STARLINK-3125           
1 49451U 21104AV  22141.25001157 -.00051230  00000+0 -32209-2 0  9992
2 49451  53.2189 332.0627 0002279  29.0805 125.5704 15.08871225  1307
STARLINK-3150           
1 49452U 21104AW  22141.25001157 -.00000116  00000+0  10825-4 0  9991
2 49452  53.2181 332.0570 0002186  33.6390 195.8551 15.08837585  1305
STARLINK-3129           
1 49453U 21104AX  22141.25001157 -.00002792  00000+0 -15741-3 0  9996
2 49453  53.2189 332.0605 0002070  32.8559 161.8428 15.08831806  1309
STARLINK-3160           
1 49454U 21104AY  22141.25001157 -.00002332  00000+0 -12845-3 0  9999
2 49454  53.2199 332.0683 0002869  24.6281 150.0580 15.08831060  1305
STARLINK-3145           
1 49455U 21104AZ  22141.25001157 -.00047030  00000+0 -29552-2 0  9996
2 49455  53.2177 332.0564 0002003  32.0924 222.6091 15.08852387  1305
STARLINK-3124           
1 49456U 21104BA  22141.25001157 -.00025787  00000+0 -16075-2 0  9998
2 49456  53.2199 332.0675 0002477  26.1102 188.5839 15.08847970  1302
STARLINK-3132           
1 49457U 21104BB  22141.25001157 -.00030427  00000+0 -19017-2 0  9995
2 49457  53.2182 332.0608 0002158  31.0798 243.6108 15.08839814 30248
STARLINK-3156           
1 49458U 21104BC  22141.25001157 -.00000785  00000+0 -31175-4 0  9991
2 49458  53.2184 332.0591 0002585  28.1957 206.4898 15.08832824  1302
STARLINK-3141           
1 49459U 21104BD  22141.25001157 -.00011872  00000+0 -72912-3 0  9994
2 49459  53.2186 332.0639 0002355  27.1025 267.5957 15.08832306  1307
STARLINK-3140           
1 49460U 21104BE  22141.25001157 -.00031026  00000+0 -19392-2 0  9991
2 49460  53.2175 332.0815 0002420  26.1143 288.5582 15.08847231  1306
GLOBAL-14               
1 49469U 21106A   22140.94367418  .00026128  00000+0  54361-3 0  9993
2 49469  42.0167  11.4432 0015143 228.2775 131.5680 15.44955766 28462
GLOBAL-15               
1 49470U 21106B   22141.00102481  .00015949  00000+0  47960-3 0  9996
2 49470  42.0107  14.4954 0010603 169.8591 190.2463 15.34042727 28433
GAOFEN 11-3             
1 49492U 21107A   22141.23838500  .00007134  00000+0  29941-3 0  9990
2 49492  97.4255 200.4612 0003169 119.5271 326.6510 15.23772334 28079
ASTRA SATELLITE 00001   
1 49494U 21108A   22140.56779172  .00033155  00000+0  94324-3 0  9996
2 49494  86.0045  90.8029 0041099 328.6248  31.2550 15.35118330 27756
GAOFEN 3-02             
1 49495U 21109A   22141.23602996  .00000049  00000+0  28071-4 0  9995
2 49495  98.4135 149.0068 0001280  79.6043 280.5292 14.42213507 25847
SHIYAN 11 (SY-11)       
1 49501U 21112A   22141.20845001  .00007619  00000+0  31113-3 0  9990
2 49501  97.4506 150.5379 0011498  13.9998  53.7085 15.24623591 26996
COSMOS 2552             
1 49503U 21113A   22140.50350247 -.00001125  00000+0  00000+0 0  9992
2 49503  63.7529  10.0404 6998009 270.0353  17.3025  2.00600814  3535
CHINASAT 1D (ZX 1D)     
1 49505U 21114A   22141.26461103 -.00000345  00000+0  00000+0 0  9996
2 49505   1.5441 279.8060 0003422 178.3757   6.0994  1.00269923  1901
STARLINK-3219           
1 49724U 21115A   22141.25001157  .00068349  00000+0  42742-2 0  9997
2 49724  53.2120 262.0696 0001831  37.9695  16.5058 15.08814493  1306
STARLINK-3218           
1 49725U 21115B   22141.25001157  .00061617  00000+0  38612-2 0  9990
2 49725  53.2175 262.0644 0002486  27.1205 207.3689 15.08789763  1306
STARLINK-3237           
1 49726U 21115C   22141.25001157  .00050544  00000+0  31735-2 0  9997
2 49726  53.2176 272.0729 0001990  37.0934  47.6116 15.08813004  1307
STARLINK-3242           
1 49727U 21115D   22141.25001157  .00070897  00000+0  44339-2 0  9995
2 49727  53.2170 272.0765 0001982  37.8038  26.8997 15.08792711  1303
STARLINK-3240           
1 49728U 21115E   22141.25001157  .00073913  00000+0  46197-2 0  9992
2 49728  53.2153 272.0771 0001655  50.2419 354.4904 15.08793836  1308
STARLINK-3251           
1 49729U 21115F   22141.25001157  .00023966  00000+0  15194-2 0  9999
2 49729  53.2165 272.0764 0002566  22.8797   1.8205 15.08824637  1301
STARLINK-3249           
1 49730U 21115G   22141.25001157  .00038398  00000+0  24185-2 0  9996
2 49730  53.2154 272.0692 0002049  31.8026 312.9170 15.08825448  1300
